FALCON 9 DEB            
1 56562U 23065BM  23161.59500027  .00487081  11319-3  80878-3 0  9991
2 56562  43.0026 274.4468 0005386 165.2804 194.8232 16.02153170  5150
BEIDOU-3 G4             
1 56564U 23066A   23161.87063205 -.00000115  00000+0  00000+0 0  9993
2 56564   3.0534 289.3183 0007029 185.7050 257.3749  1.00271539   354
CZ-3B R/B               
1 56565U 23066B   23161.86436092  .00090631 -49052-6  19173-2 0  9994
2 56565  28.2991 264.2534 7211350 195.0205 119.4727  2.41710711   608
STARLINK-30122          
1 56688U 23067A   23162.16667824 -.02110239  00000+0 -42561-1 0  9993
2 56688  43.0005 330.9412 0001341 281.1674 226.8446 15.49214745  3903
STARLINK-30129          
1 56689U 23067B   23162.16667824 -.02083703  00000+0 -41009-1 0  9995
2 56689  43.0006 330.9398 0001243 262.2872 246.3248 15.49857162  3902
STARLINK-30124          
1 56690U 23067C   23162.16667824 -.01333611  00000+0 -25778-1 0  9997
2 56690  43.0005 330.9383 0001793 266.7821 242.3875 15.49961863  3906
STARLINK-30087          
1 56691U 23067D   23162.16667824 -.02138827  00000+0 -61571-1 0  9992
2 56691  43.0007 331.0575 0000765 265.8419 193.7250 15.38310536  3892
STARLINK-30036          
1 56692U 23067E   23162.25001157 -.02065313  00000+0 -59859-1 0  9999
2 56692  43.0005 330.5647 0000710 274.1410 293.8889 15.38565534  3912
STARLINK-30067          
1 56693U 23067F   23162.16667824 -.02145134  00000+0 -57864-1 0  9993
2 56693  43.0005 331.0157 0000543 225.8931 251.4903 15.40283197  3899
STARLINK-30126          
1 56694U 23067G   23162.16667824 -.02136973  00000+0 -58905-1 0  9992
2 56694  43.0006 331.0282 0000565 262.9419 208.8475 15.39620730  3893
STARLINK-30121          
1 56695U 23067H   23161.91667824 -.02031617  00000+0 -52587-1 0  9994
2 56695  43.0005 332.4465 0001991 282.9219 251.0741 15.41875648  1308
STARLINK-30118          
1 56696U 23067J   23161.68345549  .00255274  33134-4  66847-3 0  9994
2 56696  43.0012 330.1006 0008664 326.9945  33.0390 15.94073817  4455
STARLINK-30130          
1 56697U 23067K   23162.16667824 -.02102891  00000+0 -46100-1 0  9991
2 56697  43.0007 330.9248 0001346 286.3578 228.1972 15.46840294  3907
STARLINK-30068          
1 56698U 23067L   23161.91667824  .00207630  00000+0  12632-2 0  9991
2 56698  43.0016 331.1225 0009845 311.6070  39.7786 15.76017024  1308
STARLINK-30127          
1 56699U 23067M   23162.16667824 -.02117085  00000+0 -55619-1 0  9999
2 56699  43.0005 330.9914 0000935 265.4873 222.0633 15.41601939  3897
STARLINK-30053          
1 56700U 23067N   23162.16667824 -.02108795  00000+0 -54178-1 0  9999
2 56700  43.0005 330.9797 0000365 199.5732 292.5528 15.42251948  3894
STARLINK-30125          
1 56701U 23067P   23162.16667824 -.02062705  00000+0 -52140-1 0  9997
2 56701  43.0005 330.9725 0002172 272.4334 225.8477 15.42630274  3898
STARLINK-30117          
1 56702U 23067Q   23161.91667824  .00173964  00000+0  31999-2 0  9996
2 56702  43.0006 332.4012 0002274 286.7693 266.4910 15.47836582  1307
STARLINK-30132          
1 56703U 23067R   23162.16667824 -.02118448  00000+0 -50900-1 0  9997
2 56703  43.0006 330.9528 0001078 264.8582 238.9278 15.44226209  3903
STARLINK-30066          
1 56704U 23067S   23162.16667824 -.02115700  00000+0 -44315-1 0  9999
2 56704  43.0006 330.9168 0001178 258.3513 259.5331 15.48159781  3900
STARLINK-30080          
1 56705U 23067T   23162.16667824 -.00722351  00000+0 -81425-2 0  9998
2 56705  43.0011 329.7502 0001302 275.4424 355.8095 15.63935892  3915
STARLINK-30079          
1 56706U 23067U   23162.16667824 -.02119474  00000+0 -48671-1 0  9992
2 56706  43.0006 330.9369 0001121 252.9771 256.8745 15.45539038  3902
STARLINK-30070          
1 56707U 23067V   23162.16667824 -.02121248  00000+0 -49836-1 0  9999
2 56707  43.0006 330.9437 0000875 264.6165 242.3737 15.44884882  3901
STARLINK-30071          
1 56708U 23067W   23162.16667824 -.02105943  00000+0 -45125-1 0  9991
2 56708  43.0007 330.9210 0001089 282.8862 233.5045 15.47498718  3902
STARLINK-30085          
1 56709U 23067X   23162.16667824 -.02105997  00000+0 -47256-1 0  9998
2 56709  43.0006 330.9303 0000538 270.2472 242.1304 15.46185842  3905
ONEWEB-0561             
1 56710U 23068A   23162.16667824 -.01166945  00000+0 -34988+0 0  9996
2 56710  86.9639 131.7746 0013147 141.3680 201.6933 14.46100446  4019
ONEWEB-0668             
1 56711U 23068B   23161.90839568 -.00005110  00000+0 -62259-3 0  9995
2 56711  86.6790 131.4416 0015755 141.8035 218.4308 14.83641520  4007
ONEWEB-0676             
1 56712U 23068C   23161.91116216 -.00026928  00000+0 -33080-2 0  9994
2 56712  86.6752 131.4312 0012077 137.8858 222.3295 14.83286711  4009
ONEWEB-0677             
1 56713U 23068D   23162.16667824 -.00009181  00000+0 -23471-2 0  9994
2 56713  86.8965 131.7124 0011813 135.0660 241.1743 14.50677205  4014
ONEWEB-0678             
1 56714U 23068E   23161.92274384 -.00158732  00000+0 -20543-1 0  9996
2 56714  86.6770 131.4420 0012228 140.9255 219.2853 14.81872731  4001
ONEWEB-0679             
1 56715U 23068F   23162.11005864 -.00021523  00000+0 -26179-2 0  9993
2 56715  86.6791 131.3565 0016818 144.7173 215.5167 14.83625922  4034
ONEWEB-0680             
1 56716U 23068G   23161.57420558 -.00007064  00000+0 -86448-3 0  9994
2 56716  86.6756 131.5734 0015577 145.3876 214.8365 14.83413531  3261
ONEWEB-0681             
1 56717U 23068H   23162.05343582 -.00106843  00000+0 -13535-1 0  9990
2 56717  86.6772 131.3861 0011719 147.6715 212.5229 14.82460607  4024
ONEWEB-0682             
1 56718U 23068J   23161.91914181 -.00101863  00000+0 -12891-1 0  9995
2 56718  86.6771 131.4442 0014373 146.1563 214.0580 14.82446307  4000
ONEWEB-0683             
1 56719U 23068K   23162.05549946 -.00177353  00000+0 -22965-1 0  9995
2 56719  86.6770 131.3884 0011126 152.5120 207.6693 14.81972743  4024
ONEWEB-0684             
1 56720U 23068L   23161.78717642 -.00082836  00000+0 -10547-1 0  9990
2 56720  86.6773 131.4980 0012594 140.7844 219.4294 14.82099944  3985
ONEWEB-0686             
1 56721U 23068M   23162.11188029 -.00046191  00000+0 -56865-2 0  9998
2 56721  86.6752 131.3459 0015271 144.0024 216.2231 14.83263435  4037
ONEWEB-0694             
1 56722U 23068N   23161.90999870 -.00033968  00000+0 -41629-2 0  9999
2 56722  86.6794 131.4435 0013128 139.3031 220.9176 14.83409277  4006
ONEWEB-0696             
1 56723U 23068P   23162.16667824 -.00849063  00000+0 -11715+0 0  9991
2 56723  86.6912 131.3441 0012929 141.2351  85.8353 14.80894650  4049
ONEWEB-0703             
1 56724U 23068Q   23162.05620333 -.00082063  00000+0 -10442-1 0  9991
2 56724  86.6777 131.3855 0010226 137.9398 222.2611 14.82143223  4026
ONEWEB-0721             
1 56725U 23068R   23162.05781494  .00002058  00000+0  25167-3 0  9994
2 56725  86.6772 131.3859 0012417 139.7125 220.5020 14.82687959  4022
IRIDIUM 181             
1 56726U 23068S   23161.40867861  .00001598  00000+0  20617-3 0  9999
2 56726  86.6760 131.6810 0002941 116.6184 243.5339 14.80365061  3235
IRIDIUM 177             
1 56727U 23068T   23161.40295087  .00000082  00000+0  72478-5 0  9996
2 56727  86.6749 131.6749 0002553 110.5941 249.5555 14.80320441  3236
IRIDIUM 174             
1 56728U 23068U   23161.46512214  .00001589  00000+0  20523-3 0  9992
2 56728  86.6805 131.6584 0002586 106.6496 253.5009 14.80320298  3244
IRIDIUM 178             
1 56729U 23068V   23161.86511926  .00001599  00000+0  20693-3 0  9995
2 56729  86.6748 131.4718 0002231 104.6307 255.5163 14.80249706  3308
IRIDIUM 179             
1 56730U 23068W   23161.85928295  .00000073  00000+0  60874-5 0  9990
2 56730  86.6791 131.4792 0002166 105.6518 254.4943 14.80224165  3308
2023-069A               
1 56731U 23069A   23162.20360953  .00006756  00000+0  22875-3 0  9994
2 56731  41.0051 238.4677 0032782 283.3394  76.3772 15.30383575  3191
2023-069B               
1 56732U 23069B   23162.19667316  .00018561  00000+0  60080-3 0  9993
2 56732  41.0048 238.4132 0030907 283.2801  76.4574 15.31138044  3194
2023-069C               
1 56733U 23069C   23162.19545740  .00009401  00000+0  30953-3 0  9999
2 56733  41.0052 238.4038 0030327 283.4547  76.2895 15.31041552  3191
CZ-2C R/B               
1 56734U 23069D   23161.66101342  .00021724  00000+0  40064-3 0  9993
2 56734  41.1968 239.0607 0053468 185.7256 174.2967 15.47006937  3149
CZ-2C DEB               
1 56735U 23069E   23161.64091817  .00038734  00000+0  25934-2 0  9994
2 56735  41.1423 248.9077 0210420 262.6742  95.0108 14.89903743  3035
CZ-2C DEB               
1 56736U 23069F   23161.65499139  .00062064  00000+0  24161-2 0  9999
2 56736  40.8549 244.0373 0119399 309.5814  49.4504 15.18673427  3096
CZ-2C DEB               
1 56737U 23069G   23162.13181435  .00088054  00000+0  30573-2 0  9992
2 56737  41.0965 240.4994 0113912 320.3045  38.9479 15.22721234  3137
2023-069H               
1 56738U 23069H   23162.22109054  .00042657  00000+0  27880-2 0  9996
2 56738  40.9048 245.5725 0202933 265.7778  91.9813 14.91703034  3126
PROGRESS-MS 23          
1 56740U 23071A   23161.54446020  .00015012  00000+0  26432-3 0  9991
2 56740  51.6406   1.4649 0005280  68.5822 291.5730 15.50651503400761
2023-072A               
1 56743U 23072A   23162.09971920  .00004196  00000+0  28263-3 0  9993
2 56743  97.5433 349.0907 0007274 234.4417 125.6133 15.07203679  2514
SNIPE 4                 
1 56744U 23072B   23161.89996226  .00005181  00000+0  34731-3 0  9999
2 56744  97.5520 348.9149 0007268 236.4175 123.6359 15.07280458  2488
SNIPE 2                 
1 56745U 23072C   23162.09767144  .00005224  00000+0  34881-3 0  9992
2 56745  97.5527 349.1139 0007592 239.6200 120.4278 15.07416694  2514
2023-072D               
1 56746U 23072D   23162.09602446  .00006056  00000+0  40196-3 0  9996
2 56746  97.5528 349.1158 0007926 243.6473 116.3942 15.07577158  2510
